[
    {
        "Altitude(m)": 571820.955493148,
        "Argument of Periapsis(deg)": 0.033114955553567506,
        "Eccentricity": 0.0,
        "Inclination(deg)": 53.0,
        "Latitude(deg)": -53.0893324952789,
        "Longitude(deg)": 169.8368345721837,
        "Mean Anomaly(deg)": 272.27626433788794,
        "RAAN(deg)": -0.04928315735991589,
        "Satellite Name": "Starlink Shell 1 13",
        "Satellite Number": 13,
        "Semi-Major Axis(m)": 6931778.249405717,
        "Time(s)": 950
    },
    {
        "Altitude(m)": 571806.3390362877,
        "Argument of Periapsis(deg)": 0.03346353403307874,
        "Eccentricity": 0.0,
        "Inclination(deg)": 53.0,
        "Latitude(deg)": -53.051550215192606,
        "Longitude(deg)": 170.83046361465586,
        "Mean Anomaly(deg)": 272.90309554144466,
        "RAAN(deg)": -0.049801927437388684,
        "Satellite Name": "Starlink Shell 1 13",
        "Satellite Number": 13,
        "Semi-Major Axis(m)": 6931778.249405717,
        "Time(s)": 960
    },
    {
        "Altitude(m)": 571788.2567125009,
        "Argument of Periapsis(deg)": 0.03381211251258998,
        "Eccentricity": 0.0,
        "Inclination(deg)": 53.0,
        "Latitude(deg)": -53.00478690167201,
        "Longitude(deg)": 171.82207280775796,
        "Mean Anomaly(deg)": 273.5299267450014,
        "RAAN(deg)": -0.050320697514861484,
        "Satellite Name": "Starlink Shell 1 13",
        "Satellite Number": 13,
        "Semi-Major Axis(m)": 6931778.249405717,
        "Time(s)": 970
    },
    {
        "Altitude(m)": 571766.715717903,
        "Argument of Periapsis(deg)": 0.034160690992101214,
        "Eccentricity": 0.0,
        "Inclination(deg)": 53.0,
        "Latitude(deg)": -52.94907680938638,
        "Longitude(deg)": 172.81124311805095,
        "Mean Anomaly(deg)": 274.1567579485581,
        "RAAN(deg)": -0.05083946759233428,
        "Satellite Name": "Starlink Shell 1 13",
        "Satellite Number": 13,
        "Semi-Major Axis(m)": 6931778.249405717,
        "Time(s)": 980
    },
    {
        "Altitude(m)": 571741.7246286282,
        "Argument of Periapsis(deg)": 0.034509269471612446,
        "Eccentricity": 0.0,
        "Inclination(deg)": 53.0,
        "Latitude(deg)": -52.88446052290775,
        "Longitude(deg)": 173.7975631457139,
        "Mean Anomaly(deg)": 274.7835891521148,
        "RAAN(deg)": -0.05135823766980708,
        "Satellite Name": "Starlink Shell 1 13",
        "Satellite Number": 13,
        "Semi-Major Axis(m)": 6931778.249405717,
        "Time(s)": 990
    }
]